NORAD_CAT_ID,OBJECT_NAME,OBJECT_TYPE,EPOCH,MEAN_MOTION,ECCENTRICITY,INCLINATION,RA_OF_ASC_NODE,ARG_OF_PERICENTER,MEAN_ANOMALY,BSTAR,MEAN_MOTION_DOT,MEAN_MOTION_DDOT,TLE_LINE0,TLE_LINE1,TLE_LINE2,SEMIMAJOR_AXIS,PERIOD,APOGEE,PERIGEE,DECAYED
54778.0,STARLINK-5450,PAYLOAD,2023-09-15 22:56:58,15.08841237,0.0001186,53.2168,135.1827,101.7569,258.3556,-5.7492e-06,-3.79e-06,0.0,0 STARLINK-5450,1 54778U 22175W   23258.95622979 -.00000379  00000-0 -57492-5 0  9990,2 54778  53.2168 135.1827 0001186 101.7569 258.3556 15.08841237 41233,6917.877,95.437,540.562,538.921,0.0
54778.0,STARLINK-5450,PAYLOAD,2023-09-16 02:07:44,15.08844108,0.000118,53.2164,134.5866,100.1127,259.9998,1.9368e-05,2e-07,0.0,0 STARLINK-5450,1 54778U 22175W   23259.08870684  .00000020  00000-0  19368-4 0  9993,2 54778  53.2164 134.5866 0001180 100.1127 259.9998 15.08844108 43411,6917.868,95.437,540.549,538.917,0.0
54778.0,STARLINK-5450,PAYLOAD,2023-09-17 01:58:32,15.08828288,0.0001058,53.2164,130.1257,102.7229,257.3881,0.00011513,1.544e-05,0.0,0 STARLINK-5450,1 54778U 22175W   23260.08231786  .00001544  00000-0  11513-3 0  9994,2 54778  53.2164 130.1257 0001058 102.7229 257.3881 15.08828288 41403,6917.916,95.438,540.513,539.049,0.0
54778.0,STARLINK-5450,PAYLOAD,2023-09-18 00:13:55,15.08844519,0.0001037,53.2165,125.9624,92.7702,267.3409,3.005e-06,-2.4e-06,0.0,0 STARLINK-5450,1 54778U 22175W   23261.00967389 -.00000240  00000-0  30050-5 0  9994,2 54778  53.2165 125.9624 0001037  92.7702 267.3409 15.08844519 41542,6917.867,95.437,540.449,539.014,0.0
54778.0,STARLINK-5450,PAYLOAD,2023-09-18 20:53:56,15.0882917,0.0001125,53.2164,122.0971,87.4745,272.6376,0.0001712,2.437e-05,0.0,0 STARLINK-5450,1 54778U 22175W   23261.87079648  .00002437  00000-0  17120-3 0  9991,2 54778  53.2164 122.0971 0001125  87.4745 272.6376 15.08829170 43832,6917.913,95.438,540.557,539.0,0.0
54778.0,STARLINK-5450,PAYLOAD,2023-09-19 19:09:19,15.08850054,0.0001194,53.2164,117.9346,79.6339,280.4787,4.3869e-05,4.11e-06,0.0,0 STARLINK-5450,1 54778U 22175W   23262.79814635  .00000411  00000-0  43869-4 0  9996,2 54778  53.2164 117.9346 0001194  79.6339 280.4787 15.08850054 41813,6917.85,95.437,540.541,538.889,0.0
54778.0,STARLINK-5450,PAYLOAD,2023-09-19 23:55:28,15.08853034,0.0001176,53.2162,117.0412,81.9024,278.2101,6.5903e-05,7.62e-06,0.0,0 STARLINK-5450,1 54778U 22175W   23262.99686185  .00000762  00000-0  65903-4 0  9997,2 54778  53.2162 117.0412 0001176  81.9024 278.2101 15.08853034 44003,6917.841,95.437,540.519,538.892,0.0
54778.0,STARLINK-5450,PAYLOAD,2023-09-20 19:00:08,15.08830984,0.0001261,53.2164,113.4728,101.5307,258.5827,-0.00014368,-2.573e-05,0.0,0 STARLINK-5450,1 54778U 22175W   23263.79176586 -.00002573  00000-0 -14368-3 0  9997,2 54778  53.2164 113.4728 0001261 101.5307 258.5827 15.08830984 41960,6917.908,95.438,540.645,538.901,0.0
54778.0,STARLINK-5450,PAYLOAD,2023-09-20 20:35:32,15.08826687,0.0001292,53.216,113.1766,83.8087,276.3052,-0.00016957,-2.985e-05,0.0,0 STARLINK-5450,1 54778U 22175W   23263.85801026 -.00002985  00000-0 -16957-3 0  9991,2 54778  53.2160 113.1766 0001292  83.8087 276.3052 15.08826687 44131,6917.921,95.438,540.68,538.892,0.0
54778.0,STARLINK-5450,PAYLOAD,2023-09-20 23:46:18,15.08827041,0.0001284,53.2161,112.5814,76.7127,283.4008,-0.00016155,-2.857e-05,0.0,0 STARLINK-5450,1 54778U 22175W   23263.99049091 -.00002857  00000-0 -16155-3 0  9990,2 54778  53.2161 112.5814 0001284  76.7127 283.4008 15.08827041 44153,6917.92,95.438,540.673,538.897,0.0
54778.0,STARLINK-5450,PAYLOAD,2023-09-21 18:50:55,15.08839115,0.0001174,53.216,109.0122,91.6725,268.4402,-9.5761e-05,-1.811e-05,0.0,0 STARLINK-5450,1 54778U 22175W   23264.78536300 -.00001811  00000-0 -95761-4 0  9992,2 54778  53.2160 109.0122 0001174  91.6725 268.4402 15.08839115 42113,6917.883,95.438,540.56,538.936,0.0
54778.0,STARLINK-5450,PAYLOAD,2023-09-21 20:26:18,15.08842248,0.0001289,53.2162,108.7148,91.7699,268.344,-6.403e-05,-1.307e-05,0.0,0 STARLINK-5450,1 54778U 22175W   23264.85160042 -.00001307  00000-0 -64030-4 0  9991,2 54778  53.2162 108.7148 0001289  91.7699 268.3440 15.08842248 44289,6917.874,95.437,540.63,538.847,0.0
54778.0,STARLINK-5450,PAYLOAD,2023-09-22 20:17:04,15.0883943,0.0001356,53.2166,104.2539,89.6557,270.459,0.0001811,2.595e-05,0.0,0 STARLINK-5450,1 54778U 22175W   23265.84519463  .00002595  00000-0  18110-3 0  9991,2 54778  53.2166 104.2539 0001356  89.6557 270.4590 15.08839430 44438,6917.882,95.438,540.685,538.809,0.0
54778.0,STARLINK-5450,PAYLOAD,2023-09-23 12:10:56,15.08836596,0.0001506,53.2175,101.2844,85.0918,275.0246,5.4782e-05,5.84e-06,0.0,0 STARLINK-5450,1 54778U 22175W   23266.50760416  .00000584  00000-0  54782-4 0  9993,2 54778  53.2175 101.2844 0001506  85.0918 275.0246 15.08836596 42372,6917.891,95.438,540.798,538.714,0.0
54778.0,STARLINK-5450,PAYLOAD,2023-09-23 18:32:30,15.0883148,0.0001542,53.2176,100.0935,97.7819,262.3348,-7.5417e-05,-1.488e-05,0.0,0 STARLINK-5450,1 54778U 22175W   23266.77257280 -.00001488  00000-0 -75417-4 0  9996,2 54778  53.2176 100.0935 0001542  97.7819 262.3348 15.08831480 42415,6917.906,95.438,540.838,538.705,0.0
54778.0,STARLINK-5450,PAYLOAD,2023-09-24 13:37:07,15.08843718,0.0001376,53.2178,96.5237,86.4638,273.6511,-8.2893e-05,-1.607e-05,0.0,0 STARLINK-5450,1 54778U 22175W   23267.56744484 -.00001607  00000-0 -82893-4 0  9990,2 54778  53.2178  96.5237 0001376  86.4638 273.6511 15.08843718 44696,6917.869,95.437,540.686,538.782,0.0
54778.0,STARLINK-5450,PAYLOAD,2023-09-24 18:23:16,15.08846594,0.0001389,53.2177,95.6317,88.7831,271.3321,-4.4597e-05,-9.98e-06,0.0,0 STARLINK-5450,1 54778U 22175W   23267.76616077 -.00000998  00000-0 -44597-4 0  9999,2 54778  53.2177  95.6317 0001389  88.7831 271.3321 15.08846594 42561,6917.86,95.437,540.686,538.764,0.0
54778.0,STARLINK-5450,PAYLOAD,2023-09-24 21:34:02,15.08849448,0.0001351,53.2175,95.0368,86.2811,273.8335,-1.7438e-05,-5.66e-06,0.0,0 STARLINK-5450,1 54778U 22175W   23267.89863747 -.00000566  00000-0 -17438-4 0  9996,2 54778  53.2175  95.0368 0001351  86.2811 273.8335 15.08849448 44744,6917.852,95.437,540.651,538.782,0.0
54778.0,STARLINK-5450,PAYLOAD,2023-09-25 05:30:58,15.08843326,0.0001316,53.2172,93.5473,86.0477,274.0665,-7.7865e-05,-1.527e-05,0.0,0 STARLINK-5450,1 54778U 22175W   23268.22984124 -.00001527  00000-0 -77865-4 0  9995,2 54778  53.2172  93.5473 0001316  86.0477 274.0665 15.08843326 44791,6917.87,95.437,540.646,538.825,0.0
54778.0,STARLINK-5450,PAYLOAD,2023-09-25 16:38:40,15.0882707,0.0001088,53.2169,91.4647,75.7612,284.3501,0.00014962,2.093e-05,0.0,0 STARLINK-5450,1 54778U 22175W   23268.69352407  .00002093  00000-0  14962-3 0  9994,2 54778  53.2169  91.4647 0001088  75.7612 284.3501 15.08827070 42709,6917.92,95.438,540.538,539.032,0.0
54778.0,STARLINK-5450,PAYLOAD,2023-09-25 19:49:26,15.08839528,0.0001336,53.2162,90.8719,80.8026,279.3117,6.45e-05,7.39e-06,0.0,0 STARLINK-5450,1 54778U 22175W   23268.82600060  .00000739  00000-0  64500-4 0  9999,2 54778  53.2162  90.8719 0001336  80.8026 279.3117 15.08839528 44886,6917.882,95.438,540.671,538.823,0.0
54778.0,STARLINK-5450,PAYLOAD,2023-09-25 23:00:12,15.08845456,0.0001359,53.2161,90.2766,78.7343,281.3802,0.00010195,1.335e-05,0.0,0 STARLINK-5450,1 54778U 22175W   23268.95847525  .00001335  00000-0  10195-3 0  9995,2 54778  53.2161  90.2766 0001359  78.7343 281.3802 15.08845456 42748,6917.864,95.437,540.669,538.789,0.0
54778.0,STARLINK-5450,PAYLOAD,2023-09-26 18:04:51,15.08835576,0.0001649,53.2169,86.7083,76.7763,283.3413,-8.4839e-05,-1.638e-05,0.0,0 STARLINK-5450,1 54778U 22175W   23269.75337154 -.00001638  00000-0 -84839-4 0  9991,2 54778  53.2169  86.7083 0001649  76.7763 283.3413 15.08835576 42869,6917.894,95.438,540.9,538.618,0.0
54778.0,STARLINK-5450,PAYLOAD,2023-09-26 19:40:14,15.0883645,0.0001575,53.2168,86.4109,77.7062,282.4106,-7.5729e-05,-1.493e-05,0.0,0 STARLINK-5450,1 54778U 22175W   23269.81961057 -.00001493  00000-0 -75729-4 0  9990,2 54778  53.2168  86.4109 0001575  77.7062 282.4106 15.08836450 45038,6917.891,95.438,540.846,538.667,0.0
54778.0,STARLINK-5450,PAYLOAD,2023-09-27 11:34:05,15.08836212,0.0001623,53.2159,83.4398,81.3066,278.811,-1.6648e-05,-5.53e-06,0.0,0 STARLINK-5450,1 54778U 22175W   23270.48200995 -.00000553  00000-0 -16648-4 0  9993,2 54778  53.2159  83.4398 0001623  81.3066 278.8110 15.08836212 45135,6917.892,95.438,540.88,538.634,0.0
54778.0,STARLINK-5450,PAYLOAD,2023-09-27 17:55:38,15.08839925,0.0001354,53.216,82.2487,89.8651,270.2496,-5.1564e-05,-1.108e-05,0.0,0 STARLINK-5450,1 54778U 22175W   23270.74696871 -.00001108  00000-0 -51564-4 0  9997,2 54778  53.2160  82.2487 0001354  89.8651 270.2496 15.08839925 43019,6917.881,95.438,540.682,538.809,0.0
54778.0,STARLINK-5450,PAYLOAD,2023-09-28 14:35:38,15.08840985,0.0001381,53.2162,78.3828,87.0201,273.0949,4.4703e-05,4.24e-06,0.0,0 STARLINK-5450,1 54778U 22175W   23271.60808535  .00000424  00000-0  44703-4 0  9990,2 54778  53.2162  78.3828 0001381  87.0201 273.0949 15.08840985 45303,6917.877,95.437,540.698,538.787,0.0
54778.0,STARLINK-5450,PAYLOAD,2023-09-28 17:46:24,15.08843009,0.0001411,53.2163,77.7883,85.3522,274.7631,5.9568e-05,6.6e-06,0.0,0 STARLINK-5450,1 54778U 22175W   23271.74056344  .00000660  00000-0  59568-4 0  9995,2 54778  53.2163  77.7883 0001411  85.3522 274.7631 15.08843009 45327,6917.871,95.437,540.712,538.76,0.0
54778.0,STARLINK-5450,PAYLOAD,2023-09-29 11:15:39,15.08833896,0.0001456,53.218,74.5187,88.1318,271.9841,4.0058e-05,3.5e-06,0.0,0 STARLINK-5450,1 54778U 22175W   23272.46920959  .00000350  00000-0  40058-4 0  9997,2 54778  53.2180  74.5187 0001456  88.1318 271.9841 15.08833896 43278,6917.899,95.438,540.771,538.757,0.0
54778.0,STARLINK-5450,PAYLOAD,2023-09-29 14:26:25,15.08836242,0.0001533,53.2173,73.9236,88.3096,271.8072,1.2288e-05,-9.2e-07,0.0,0 STARLINK-5450,1 54778U 22175W   23272.60168944 -.00000092  00000-0  12288-4 0  9999,2 54778  53.2173  73.9236 0001533  88.3096 271.8072 15.08836242 45454,6917.892,95.438,540.817,538.696,0.0
